[{"OBJECT_NAME":"ONEWEB-0720","OBJECT_ID":"2023-029AR","EPOCH":"2025-12-06T13:10:22.314432","MEAN_MOTION":13.19724546,"ECCENTRICITY":0.0002062,"INCLINATION":87.9189,"RA_OF_ASC_NODE":343.3177,"ARG_OF_PERICENTER":82.8991,"MEAN_ANOMALY":277.2376,"EPHEMERIS_TYPE":0,"CLASSIFICATION_TYPE":"U","NORAD_CAT_ID":55835,"ELEMENT_SET_NO":999,"REV_AT_EPOCH":13343,"BSTAR":0.00024453913,"MEAN_MOTION_DOT":1.11e-6,"MEAN_MOTION_DDOT":0},{"OBJECT_NAME":"ONEWEB-0537","OBJECT_ID":"2023-043A","EPOCH":"2025-12-06T13:00:55.399104","MEAN_MOTION":13.16593849,"ECCENTRICITY":0.00015525,"INCLINATION":87.9044,"RA_OF_ASC_NODE":267.1308,"ARG_OF_PERICENTER":72.4758,"MEAN_ANOMALY":287.6543,"EPHEMERIS_TYPE":0,"CLASSIFICATION_TYPE":"U","NORAD_CAT_ID":56046,"ELEMENT_SET_NO":999,"REV_AT_EPOCH":13361,"BSTAR":9.9466326e-5,"MEAN_MOTION_DOT":5.1e-7,"MEAN_MOTION_DDOT":0},{"OBJECT_NAME":"ONEWEB-0538","OBJECT_ID":"2023-043B","EPOCH":"2025-12-06T12:51:47.909088","MEAN_MOTION":13.16593872,"ECCENTRICITY":0.00017653,"INCLINATION":87.904,"RA_OF_ASC_NODE":267.1366,"ARG_OF_PERICENTER":64.8986,"MEAN_ANOMALY":295.2328,"EPHEMERIS_TYPE":0,"CLASSIFICATION_TYPE":"U","NORAD_CAT_ID":56047,"ELEMENT_SET_NO":999,"REV_AT_EPOCH":13362,"BSTAR":-5.6370309e-5,"MEAN_MOTION_DOT":-9.0e-8,"MEAN_MOTION_DDOT":0},{"OBJECT_NAME":"ONEWEB-0546","OBJECT_ID":"2023-043C","EPOCH":"2025-12-06T12:33:34.174080","MEAN_MOTION":13.16595401,"ECCENTRICITY":0.0001068,"INCLINATION":87.9053,"RA_OF_ASC_NODE":267.1299,"ARG_OF_PERICENTER":75.1372,"MEAN_ANOMALY":284.9877,"EPHEMERIS_TYPE":0,"CLASSIFICATION_TYPE":"U","NORAD_CAT_ID":56048,"ELEMENT_SET_NO":999,"REV_AT_EPOCH":13361,"BSTAR":5.5724126e-5,"MEAN_MOTION_DOT":3.4e-7,"MEAN_MOTION_DDOT":0},{"OBJECT_NAME":"ONEWEB-0547","OBJECT_ID":"2023-043D","EPOCH":"2025-12-06T14:26:13.678080","MEAN_MOTION":13.21824045,"ECCENTRICITY":0.00019075,"INCLINATION":87.9213,"RA_OF_ASC_NODE":282.3851,"ARG_OF_PERICENTER":73.7069,"MEAN_ANOMALY":286.4274,"EPHEMERIS_TYPE":0,"CLASSIFICATION_TYPE":"U","NORAD_CAT_ID":56049,"ELEMENT_SET_NO":999,"REV_AT_EPOCH":13278,"BSTAR":-0.00035634636,"MEAN_MOTION_DOT":-1.34e-6,"MEAN_MOTION_DDOT":0},{"OBJECT_NAME":"ONEWEB-0548","OBJECT_ID":"2023-043E","EPOCH":"2025-12-06T13:08:53.102976","MEAN_MOTION":13.16593367,"ECCENTRICITY":0.00019114,"INCLINATION":87.9035,"RA_OF_ASC_NODE":267.133,"ARG_OF_PERICENTER":88.6554,"MEAN_ANOMALY":271.4796,"EPHEMERIS_TYPE":0,"CLASSIFICATION_TYPE":"U","NORAD_CAT_ID":56050,"ELEMENT_SET_NO":999,"REV_AT_EPOCH":13361,"BSTAR":0.00031367296,"MEAN_MOTION_DOT":1.33e-6,"MEAN_MOTION_DDOT":0},{"OBJECT_NAME":"ONEWEB-0549","OBJECT_ID":"2023-043F","EPOCH":"2025-12-06T06:59:32.937216","MEAN_MOTION":13.21824741,"ECCENTRICITY":0.00019317,"INCLINATION":87.9209,"RA_OF_ASC_NODE":282.4611,"ARG_OF_PERICENTER":68.2444,"MEAN_ANOMALY":291.8896,"EPHEMERIS_TYPE":0,"CLASSIFICATION_TYPE":"U","NORAD_CAT_ID":56051,"ELEMENT_SET_NO":999,"REV_AT_EPOCH":13274,"BSTAR":0.00018194953,"MEAN_MOTION_DOT":8.8e-7,"MEAN_MOTION_DDOT":0},{"OBJECT_NAME":"ONEWEB-0550","OBJECT_ID":"2023-043G","EPOCH":"2025-12-06T13:56:35.132352","MEAN_MOTION":13.21820637,"ECCENTRICITY":0.00017484,"INCLINATION":87.9212,"RA_OF_ASC_NODE":282.3986,"ARG_OF_PERICENTER":81.0125,"MEAN_ANOMALY":279.1206,"EPHEMERIS_TYPE":0,"CLASSIFICATION_TYPE":"U","NORAD_CAT_ID":56052,"ELEMENT_SET_NO":999,"REV_AT_EPOCH":13278,"BSTAR":6.1416707e-5,"MEAN_MOTION_DOT":3.8e-7,"MEAN_MOTION_DDOT":0},{"OBJECT_NAME":"ONEWEB-0551","OBJECT_ID":"2023-043H","EPOCH":"2025-12-06T13:52:26.519808","MEAN_MOTION":13.15548399,"ECCENTRICITY":0.00019554,"INCLINATION":87.8983,"RA_OF_ASC_NODE":297.6664,"ARG_OF_PERICENTER":75.4199,"MEAN_ANOMALY":284.7148,"EPHEMERIS_TYPE":0,"CLASSIFICATION_TYPE":"U","NORAD_CAT_ID":56053,"ELEMENT_SET_NO":999,"REV_AT_EPOCH":13107,"BSTAR":0.00031774879,"MEAN_MOTION_DOT":1.32e-6,"MEAN_MOTION_DDOT":0},{"OBJECT_NAME":"ONEWEB-0552","OBJECT_ID":"2023-043J","EPOCH":"2025-12-06T13:49:30.065088","MEAN_MOTION":13.21825388,"ECCENTRICITY":0.00020561,"INCLINATION":87.9212,"RA_OF_ASC_NODE":282.4082,"ARG_OF_PERICENTER":76.8241,"MEAN_ANOMALY":283.3122,"EPHEMERIS_TYPE":0,"CLASSIFICATION_TYPE":"U","NORAD_CAT_ID":56054,"ELEMENT_SET_NO":999,"REV_AT_EPOCH":13278,"BSTAR":-6.9876641e-5,"MEAN_MOTION_DOT":-1.6e-7,"MEAN_MOTION_DDOT":0},{"OBJECT_NAME":"ONEWEB-0553","OBJECT_ID":"2023-043K","EPOCH":"2025-12-06T12:42:40.439808","MEAN_MOTION":13.16594383,"ECCENTRICITY":0.00014311,"INCLINATION":87.9043,"RA_OF_ASC_NODE":267.1367,"ARG_OF_PERICENTER":79.96,"MEAN_ANOMALY":280.1692,"EPHEMERIS_TYPE":0,"CLASSIFICATION_TYPE":"U","NORAD_CAT_ID":56055,"ELEMENT_SET_NO":999,"REV_AT_EPOCH":13362,"BSTAR":7.4475293e-5,"MEAN_MOTION_DOT":4.1e-7,"MEAN_MOTION_DDOT":0},{"OBJECT_NAME":"ONEWEB-0554","OBJECT_ID":"2023-043L","EPOCH":"2025-12-06T12:24:25.932384","MEAN_MOTION":13.16595928,"ECCENTRICITY":0.00018227,"INCLINATION":87.903,"RA_OF_ASC_NODE":267.154,"ARG_OF_PERICENTER":84.1367,"MEAN_ANOMALY":275.9971,"EPHEMERIS_TYPE":0,"CLASSIFICATION_TYPE":"U","NORAD_CAT_ID":56056,"ELEMENT_SET_NO":999,"REV_AT_EPOCH":13360,"BSTAR":0.0001109238,"MEAN_MOTION_DOT":5.5e-7,"MEAN_MOTION_DDOT":0},{"OBJECT_NAME":"ONEWEB-0555","OBJECT_ID":"2023-043M","EPOCH":"2025-12-06T13:19:09.572160","MEAN_MOTION":13.16594998,"ECCENTRICITY":0.00012025,"INCLINATION":87.9041,"RA_OF_ASC_NODE":267.1266,"ARG_OF_PERICENTER":80.4774,"MEAN_ANOMALY":279.6493,"EPHEMERIS_TYPE":0,"CLASSIFICATION_TYPE":"U","NORAD_CAT_ID":56057,"ELEMENT_SET_NO":999,"REV_AT_EPOCH":13361,"BSTAR":0.00031481587,"MEAN_MOTION_DOT":1.33e-6,"MEAN_MOTION_DDOT":0},{"OBJECT_NAME":"ONEWEB-0557","OBJECT_ID":"2023-043N","EPOCH":"2025-12-06T06:21:55.617984","MEAN_MOTION":13.16596386,"ECCENTRICITY":0.00016919,"INCLINATION":87.9036,"RA_OF_ASC_NODE":267.1978,"ARG_OF_PERICENTER":121.9528,"MEAN_ANOMALY":238.1767,"EPHEMERIS_TYPE":0,"CLASSIFICATION_TYPE":"U","NORAD_CAT_ID":56058,"ELEMENT_SET_NO":999,"REV_AT_EPOCH":13357,"BSTAR":0.00038454736,"MEAN_MOTION_DOT":1.6e-6,"MEAN_MOTION_DDOT":0},{"OBJECT_NAME":"ONEWEB-0558","OBJECT_ID":"2023-043P","EPOCH":"2025-12-06T13:39:59.984928","MEAN_MOTION":13.21825976,"ECCENTRICITY":0.0002046,"INCLINATION":87.9213,"RA_OF_ASC_NODE":282.4033,"ARG_OF_PERICENTER":63.5481,"MEAN_ANOMALY":296.5863,"EPHEMERIS_TYPE":0,"CLASSIFICATION_TYPE":"U","NORAD_CAT_ID":56059,"ELEMENT_SET_NO":999,"REV_AT_EPOCH":13279,"BSTAR":0.00035507603,"MEAN_MOTION_DOT":1.6e-6,"MEAN_MOTION_DDOT":0},{"OBJECT_NAME":"ONEWEB-0559","OBJECT_ID":"2023-043Q","EPOCH":"2025-12-06T13:23:24.225792","MEAN_MOTION":13.21836486,"ECCENTRICITY":0.00021323,"INCLINATION":87.9215,"RA_OF_ASC_NODE":282.3983,"ARG_OF_PERICENTER":74.5203,"MEAN_ANOMALY":285.6166,"EPHEMERIS_TYPE":0,"CLASSIFICATION_TYPE":"U","NORAD_CAT_ID":56060,"ELEMENT_SET_NO":999,"REV_AT_EPOCH":13280,"BSTAR":0.0024266895,"MEAN_MOTION_DOT":1.016e-5,"MEAN_MOTION_DDOT":0},{"OBJECT_NAME":"ONEWEB-0566","OBJECT_ID":"2023-043R","EPOCH":"2025-12-06T13:13:56.243424","MEAN_MOTION":13.21824673,"ECCENTRICITY":0.00020531,"INCLINATION":87.9211,"RA_OF_ASC_NODE":282.3979,"ARG_OF_PERICENTER":70.5512,"MEAN_ANOMALY":289.5844,"EPHEMERIS_TYPE":0,"CLASSIFICATION_TYPE":"U","NORAD_CAT_ID":56061,"ELEMENT_SET_NO":999,"REV_AT_EPOCH":13278,"BSTAR":0.00015898389,"MEAN_MOTION_DOT":7.9e-7,"MEAN_MOTION_DDOT":0}]
