ONEWEB-0720             
1 55835U 23029AR  25340.54886938  .00000111  00000+0  24454-3 0  9991
2 55835  87.9189 343.3177 0002062  82.8991 277.2376 13.19724546133435
ONEWEB-0537             
1 56046U 23043A   25340.54230786  .00000051  00000+0  99466-4 0  9995
2 56046  87.9044 267.1308 0001552  72.4758 287.6543 13.16593849133616
ONEWEB-0538             
1 56047U 23043B   25340.53597117 -.00000009  00000+0 -56370-4 0  9991
2 56047  87.9040 267.1366 0001765  64.8986 295.2328 13.16593872133624
ONEWEB-0546             
1 56048U 23043C   25340.52331220  .00000034  00000+0  55724-4 0  9990
2 56048  87.9053 267.1299 0001068  75.1372 284.9877 13.16595401133617
ONEWEB-0547             
1 56049U 23043D   25340.60154720 -.00000134  00000+0 -35635-3 0  9999
2 56049  87.9213 282.3851 0001907  73.7069 286.4274 13.21824045132788
ONEWEB-0548             
1 56050U 23043E   25340.54783684  .00000133  00000+0  31367-3 0  9996
2 56050  87.9035 267.1330 0001911  88.6554 271.4796 13.16593367133614
ONEWEB-0549             
1 56051U 23043F   25340.29135344  .00000088  00000+0  18195-3 0  9996
2 56051  87.9209 282.4611 0001931  68.2444 291.8896 13.21824741132743
ONEWEB-0550             
1 56052U 23043G   25340.58096218  .00000038  00000+0  61417-4 0  9996
2 56052  87.9212 282.3986 0001748  81.0125 279.1206 13.21820637132785
ONEWEB-0551             
1 56053U 23043H   25340.57808472  .00000132  00000+0  31775-3 0  9997
2 56053  87.8983 297.6664 0001955  75.4199 284.7148 13.15548399131073
ONEWEB-0552             
1 56054U 23043J   25340.57604242 -.00000016  00000+0 -69877-4 0  9995
2 56054  87.9212 282.4082 0002056  76.8241 283.3122 13.21825388132781
ONEWEB-0553             
1 56055U 23043K   25340.52963472  .00000041  00000+0  74475-4 0  9990
2 56055  87.9043 267.1367 0001431  79.9600 280.1692 13.16594383133622
ONEWEB-0554             
1 56056U 23043L   25340.51696681  .00000055  00000+0  11092-3 0  9995
2 56056  87.9030 267.1540 0001822  84.1367 275.9971 13.16595928133600
ONEWEB-0555             
1 56057U 23043M   25340.55497190  .00000133  00000+0  31482-3 0  9996
2 56057  87.9041 267.1266 0001202  80.4774 279.6493 13.16594998133618
ONEWEB-0557             
1 56058U 23043N   25340.26522706  .00000160  00000+0  38455-3 0  9994
2 56058  87.9036 267.1978 0001691 121.9528 238.1767 13.16596386133575
ONEWEB-0558             
1 56059U 23043P   25340.56944427  .00000160  00000+0  35508-3 0  9992
2 56059  87.9213 282.4033 0002046  63.5481 296.5863 13.21825976132793
ONEWEB-0559             
1 56060U 23043Q   25340.55791928  .00001016  00000+0  24267-2 0  9999
2 56060  87.9215 282.3983 0002132  74.5203 285.6166 13.21836486132805
ONEWEB-0566             
1 56061U 23043R   25340.55134541  .00000079  00000+0  15898-3 0  9991
2 56061  87.9211 282.3979 0002053  70.5512 289.5844 13.21824673132786
